{"type":"FeatureCollection","generator":"tools/gen_geojson_map.js v1.0","crs":{"type":"name","properties":{"name":"SVG_VIEWBOX:0 0 1200 750"}},"zoomPresets":{"global":{"x":0,"y":0,"w":1200,"h":750},"europe":{"x":300,"y":100,"w":500,"h":420},"america":{"x":10,"y":60,"w":300,"h":600},"eastasia":{"x":740,"y":160,"w":460,"h":500},"africa":{"x":410,"y":350,"w":350,"h":400}},"stats":{"level1":6,"level2":41,"total":47},"features":[{"type":"Feature","id":"GER","properties":{"name":"大日耳曼国","faction":"GER","parent":null,"level":1,"baseColor":"#a83232","label":{"x":500,"y":225,"fontSize":11,"color":"#ffe0c0"}},"geometry":{"type":"Polygon","coordinates":[[[330,110],[430,95],[540,100],[620,115],[670,150],[685,210],[675,270],[640,310],[580,345],[510,352],[440,348],[380,330],[335,295],[320,240],[325,175],[330,110]]]}},{"type":"Feature","id":"USA","properties":{"name":"自由国家组织 (OFN)","faction":"USA","parent":null,"level":1,"baseColor":"#3a6a9a","label":{"x":150,"y":360,"fontSize":11,"color":"#c0d8f0"}},"geometry":{"type":"Polygon","coordinates":[[[20,260],[100,240],[200,245],[270,275],[295,330],[280,400],[225,460],[140,475],[60,450],[25,400],[12,330],[20,260]]]}},{"type":"Feature","id":"JAP","properties":{"name":"大日本帝国·共荣圈","faction":"JAP","parent":null,"level":1,"baseColor":"#b89438","label":{"x":1000,"y":470,"fontSize":11,"color":"#ffe8a0"}},"geometry":{"type":"Polygon","coordinates":[[[900,360],[980,345],[1060,360],[1110,410],[1125,480],[1095,545],[1020,570],[940,560],[895,510],[880,440],[900,360]]]}},{"type":"Feature","id":"BUR","properties":{"name":"勃艮第骑士团国","faction":"BUR","parent":null,"level":1,"baseColor":"#4a2a4a","label":{"x":462,"y":274,"fontSize":8.5,"color":"#e0c0e0"}},"geometry":{"type":"Polygon","coordinates":[[[410,230],[470,222],[510,238],[520,280],[500,312],[458,320],[420,306],[402,272],[410,230]]]}},{"type":"Feature","id":"ITA","properties":{"name":"意大利·三头同盟","faction":"ITA","parent":null,"level":1,"baseColor":"#5a8a4a","label":{"x":532,"y":386,"fontSize":10,"color":"#d8f0c8"}},"geometry":{"type":"Polygon","coordinates":[[[510,320],[570,310],[610,345],[615,400],[580,452],[520,458],[470,438],[445,395],[460,350],[490,328],[510,320]]]}},{"type":"Feature","id":"RUS","properties":{"name":"俄罗斯 (破碎)","faction":"RUS","parent":null,"level":1,"baseColor":"#3a3a3a","label":{"x":925,"y":265,"fontSize":11,"color":"#d0d0d0"}},"geometry":{"type":"Polygon","coordinates":[[[705,125],[830,110],[960,125],[1090,140],[1150,195],[1155,290],[1130,370],[1085,405],[995,415],[890,400],[800,382],[730,360],[708,290],[705,125]]]}},{"type":"Feature","id":"GER_core","properties":{"name":"日耳曼本土","faction":"GER","parent":"GER","level":2,"baseColor":"#c04040","label":{"x":510,"y":218,"fontSize":8,"color":"#ffe8d0"}},"geometry":{"type":"Polygon","coordinates":[[[430,130],[520,125],[590,145],[615,200],[605,265],[565,305],[510,312],[470,295],[440,255],[422,200],[420,160],[430,130]]]}},{"type":"Feature","id":"GER_nord","properties":{"name":"北欧总督区","faction":"GER","parent":"GER","level":2,"baseColor":"#b03838","label":{"x":430,"y":122,"fontSize":7,"color":"#ffd8c0"}},"geometry":{"type":"Polygon","coordinates":[[[355,105],[430,95],[500,105],[525,130],[510,145],[440,150],[380,142],[350,128],[355,105]]]}},{"type":"Feature","id":"GER_france","properties":{"name":"法兰西总督区","faction":"GER","parent":"GER","level":2,"baseColor":"#8a3232","label":{"x":378,"y":268,"fontSize":7.5,"color":"#ffd0b0"}},"geometry":{"type":"Polygon","coordinates":[[[330,210],[400,200],[432,225],[440,278],[418,320],[370,338],[335,310],[318,268],[322,235],[330,210]]]}},{"type":"Feature","id":"GER_ostland","properties":{"name":"东方总督区","faction":"GER","parent":"GER","level":2,"baseColor":"#983030","label":{"x":618,"y":200,"fontSize":7,"color":"#ffd0b0"}},"geometry":{"type":"Polygon","coordinates":[[[580,120],[648,128],[680,175],[675,245],[640,280],[592,278],[570,240],[568,180],[580,120]]]}},{"type":"Feature","id":"GER_ukraine","properties":{"name":"乌克兰专员辖区","faction":"GER","parent":"GER","level":2,"baseColor":"#8a2828","label":{"x":632,"y":336,"fontSize":7.5,"color":"#ffc8a8"}},"geometry":{"type":"Polygon","coordinates":[[[590,280],[668,270],[708,290],[718,340],[700,382],[650,398],[590,395],[558,362],[552,318],[590,280]]]}},{"type":"Feature","id":"GER_moscow","properties":{"name":"莫斯科专员辖区","faction":"GER","parent":"GER","level":2,"baseColor":"#7a2020","label":{"x":740,"y":200,"fontSize":7,"color":"#ffc0a0"}},"geometry":{"type":"Polygon","coordinates":[[[690,140],[785,130],[800,178],[800,260],[775,275],[710,260],[682,220],[680,175],[690,140]]]}},{"type":"Feature","id":"GER_caucasus","properties":{"name":"高加索专员辖区","faction":"GER","parent":"GER","level":2,"baseColor":"#6a1818","label":{"x":622,"y":430,"fontSize":7,"color":"#ffb898"}},"geometry":{"type":"Polygon","coordinates":[[[552,390],[650,396],[700,384],[720,410],[702,450],[645,478],[578,475],[535,445],[528,412],[552,390]]]}},{"type":"Feature","id":"BUR_core","properties":{"name":"勃艮第骑士团国","faction":"BUR","parent":"BUR","level":2,"baseColor":"#4a2a4a","label":{"x":462,"y":274,"fontSize":8,"color":"#e0c0e0"}},"geometry":{"type":"Polygon","coordinates":[[[410,230],[470,222],[510,238],[520,280],[500,312],[458,320],[420,306],[402,272],[410,230]]]}},{"type":"Feature","id":"ITA_core","properties":{"name":"意大利本土","faction":"ITA","parent":"ITA","level":2,"baseColor":"#5a8a4a","label":{"x":548,"y":368,"fontSize":8,"color":"#d8f0c8"}},"geometry":{"type":"Polygon","coordinates":[[[510,320],[570,310],[605,338],[600,390],[570,422],[532,420],[505,390],[495,358],[510,320]]]}},{"type":"Feature","id":"ITA_balkan","properties":{"name":"巴尔干总督区","faction":"ITA","parent":"ITA","level":2,"baseColor":"#4a7a3a","label":{"x":640,"y":380,"fontSize":7.5,"color":"#c8e8b8"}},"geometry":{"type":"Polygon","coordinates":[[[605,338],[665,330],[700,362],[695,402],[668,425],[620,435],[590,415],[588,380],[600,352],[605,338]]]}},{"type":"Feature","id":"ITA_nafrica","properties":{"name":"意属北非","faction":"ITA","parent":"ITA","level":2,"baseColor":"#6a7a3a","label":{"x":538,"y":482,"fontSize":7.5,"color":"#e0e8b0"}},"geometry":{"type":"Polygon","coordinates":[[[460,438],[550,432],[620,452],[640,495],[605,530],[520,535],[460,512],[442,472],[460,438]]]}},{"type":"Feature","id":"USA_core","properties":{"name":"美利坚合众国","faction":"USA","parent":"USA","level":2,"baseColor":"#3a6a9a","label":{"x":148,"y":340,"fontSize":8.5,"color":"#c0d8f0"}},"geometry":{"type":"Polygon","coordinates":[[[30,262],[140,245],[230,258],[275,300],[278,370],[230,420],[125,430],[45,402],[20,340],[30,262]]]}},{"type":"Feature","id":"USA_canada","properties":{"name":"加拿大 (OFN)","faction":"USA","parent":"USA","level":2,"baseColor":"#4a7aaa","label":{"x":150,"y":190,"fontSize":7.5,"color":"#d0e4f8"}},"geometry":{"type":"Polygon","coordinates":[[[15,140],[120,120],[240,125],[295,170],[285,230],[215,248],[105,244],[35,258],[12,218],[15,140]]]}},{"type":"Feature","id":"JAP_home","properties":{"name":"日本四岛","faction":"JAP","parent":"JAP","level":2,"baseColor":"#c8a448","label":{"x":1072,"y":410,"fontSize":7.5,"color":"#fff0c0"}},"geometry":{"type":"Polygon","coordinates":[[[1035,362],[1090,350],[1120,385],[1125,430],[1100,460],[1055,462],[1025,440],[1020,400],[1035,362]]]}},{"type":"Feature","id":"JAP_manchu","properties":{"name":"满洲国 (共荣圈)","faction":"JAP","parent":"JAP","level":2,"baseColor":"#a88838","label":{"x":980,"y":355,"fontSize":7,"color":"#ffe8a0"}},"geometry":{"type":"Polygon","coordinates":[[[930,330],[1000,325],[1045,350],[1040,378],[995,388],[940,375],[915,355],[930,330]]]}},{"type":"Feature","id":"JAP_china","properties":{"name":"中国 (共荣圈)","faction":"JAP","parent":"JAP","level":2,"baseColor":"#988030","label":{"x":945,"y":445,"fontSize":7.5,"color":"#ffe090"}},"geometry":{"type":"Polygon","coordinates":[[[890,385],[955,378],[1015,400],[1010,472],[960,510],[898,500],[875,450],[880,415],[890,385]]]}},{"type":"Feature","id":"JAP_sea","properties":{"name":"东南亚总督区","faction":"JAP","parent":"JAP","level":2,"baseColor":"#887028","label":{"x":1035,"y":558,"fontSize":7,"color":"#ffd880"}},"geometry":{"type":"Polygon","coordinates":[[[970,520],[1060,510],[1110,545],[1100,590],[1040,605],[980,590],[960,555],[970,520]]]}},{"type":"Feature","id":"RUS_komi","properties":{"name":"科米共和国","faction":"RUS","parent":"RUS","level":2,"baseColor":"#4a4a5a","label":{"x":740,"y":168,"fontSize":6,"color":"#a0a0c0"}},"geometry":{"type":"Polygon","coordinates":[[[710,138],[750,132],[775,145],[772,180],[755,200],[726,198],[710,175],[710,138]]]}},{"type":"Feature","id":"RUS_wrrf","properties":{"name":"WRRF 西俄革命阵线","faction":"RUS","parent":"RUS","level":2,"baseColor":"#5a3a3a","label":{"x":745,"y":228,"fontSize":5.8,"color":"#c8a0a0"}},"geometry":{"type":"Polygon","coordinates":[[[710,196],[755,188],[780,200],[782,240],[765,262],[730,262],[710,238],[710,196]]]}},{"type":"Feature","id":"RUS_vyatka","properties":{"name":"维亚特卡","faction":"RUS","parent":"RUS","level":2,"baseColor":"#4a4a8a","label":{"x":746,"y":298,"fontSize":5.8,"color":"#a0a0d8"}},"geometry":{"type":"Polygon","coordinates":[[[712,268],[755,260],[780,274],[782,308],[765,332],[732,330],[712,304],[712,268]]]}},{"type":"Feature","id":"RUS_samara","properties":{"name":"萨马拉·俄解放军","faction":"RUS","parent":"RUS","level":2,"baseColor":"#5a5a3a","label":{"x":782,"y":284,"fontSize":5.5,"color":"#c8c8a0"}},"geometry":{"type":"Polygon","coordinates":[[[760,254],[795,248],[812,264],[810,298],[792,320],[762,316],[752,288],[760,254]]]}},{"type":"Feature","id":"RUS_ab","properties":{"name":"雅利安兄弟会","faction":"RUS","parent":"RUS","level":2,"baseColor":"#6a3a4a","label":{"x":748,"y":362,"fontSize":5,"color":"#c8a0b0"}},"geometry":{"type":"Polygon","coordinates":[[[718,332],[756,326],[780,340],[780,370],[762,395],[732,392],[718,365],[718,332]]]}},{"type":"Feature","id":"RUS_sverdlovsk","properties":{"name":"斯维尔德洛夫斯克","faction":"RUS","parent":"RUS","level":2,"baseColor":"#3a5a4a","label":{"x":836,"y":194,"fontSize":5.5,"color":"#a0c8b0"}},"geometry":{"type":"Polygon","coordinates":[[[802,160],[845,154],[870,166],[872,204],[855,230],[822,230],[804,204],[802,160]]]}},{"type":"Feature","id":"RUS_tyumen","properties":{"name":"秋明","faction":"RUS","parent":"RUS","level":2,"baseColor":"#5a4a3a","label":{"x":834,"y":264,"fontSize":5.5,"color":"#c8b8a0"}},"geometry":{"type":"Polygon","coordinates":[[[802,232],[840,226],[865,240],[868,274],[850,298],[818,296],[802,270],[802,232]]]}},{"type":"Feature","id":"RUS_omsk","properties":{"name":"鄂木斯克·黑色联盟","faction":"RUS","parent":"RUS","level":2,"baseColor":"#2a2a2a","label":{"x":896,"y":272,"fontSize":5.5,"color":"#e8e8e8"}},"geometry":{"type":"Polygon","coordinates":[[[862,236],[905,228],[930,244],[934,284],[918,312],[880,314],[858,286],[858,260],[862,236]]]}},{"type":"Feature","id":"RUS_novosib","properties":{"name":"新西伯利亚","faction":"RUS","parent":"RUS","level":2,"baseColor":"#4a4a3a","label":{"x":894,"y":344,"fontSize":5.5,"color":"#c8c8a0"}},"geometry":{"type":"Polygon","coordinates":[[[860,314],[900,306],[928,320],[934,352],[920,376],[880,376],[858,348],[860,314]]]}},{"type":"Feature","id":"RUS_tomsk","properties":{"name":"托木斯克","faction":"RUS","parent":"RUS","level":2,"baseColor":"#4a5a5a","label":{"x":950,"y":230,"fontSize":5.5,"color":"#a0c0c0"}},"geometry":{"type":"Polygon","coordinates":[[[920,198],[960,190],[982,204],[986,238],[970,260],[934,260],[920,234],[920,198]]]}},{"type":"Feature","id":"RUS_kemerovo","properties":{"name":"克麦罗沃","faction":"RUS","parent":"RUS","level":2,"baseColor":"#5a3a5a","label":{"x":948,"y":290,"fontSize":5.5,"color":"#c0a0c0"}},"geometry":{"type":"Polygon","coordinates":[[[920,260],[956,254],[978,268],[982,298],[966,320],[930,320],[920,294],[920,260]]]}},{"type":"Feature","id":"RUS_blackarmy","properties":{"name":"黑军自由领土","faction":"RUS","parent":"RUS","level":2,"baseColor":"#2a2a2a","label":{"x":1004,"y":244,"fontSize":5,"color":"#d8d8d8"}},"geometry":{"type":"Polygon","coordinates":[[[976,212],[1012,206],[1032,220],[1036,252],[1020,276],[982,272],[970,246],[974,228],[976,212]]]}},{"type":"Feature","id":"RUS_nkr","properties":{"name":"人民革命委员会","faction":"RUS","parent":"RUS","level":2,"baseColor":"#7a2a2a","label":{"x":956,"y":354,"fontSize":5,"color":"#e8a0a0"}},"geometry":{"type":"Polygon","coordinates":[[[924,324],[962,316],[988,330],[994,362],[980,386],[940,388],[922,360],[924,342],[924,324]]]}},{"type":"Feature","id":"RUS_krasnoyarsk","properties":{"name":"克拉斯诺亚尔斯克","faction":"RUS","parent":"RUS","level":2,"baseColor":"#4a4a4a","label":{"x":1006,"y":316,"fontSize":5,"color":"#a8a8a8"}},"geometry":{"type":"Polygon","coordinates":[[[978,286],[1012,280],[1034,294],[1038,326],[1022,348],[986,348],[974,322],[976,302],[978,286]]]}},{"type":"Feature","id":"RUS_irkutsk","properties":{"name":"伊尔库茨克","faction":"RUS","parent":"RUS","level":2,"baseColor":"#5a4a4a","label":{"x":1058,"y":214,"fontSize":5.5,"color":"#c8b0b0"}},"geometry":{"type":"Polygon","coordinates":[[[1032,186],[1065,180],[1086,194],[1090,226],[1076,248],[1042,244],[1030,218],[1032,186]]]}},{"type":"Feature","id":"RUS_buryatia","properties":{"name":"布里亚特","faction":"RUS","parent":"RUS","level":2,"baseColor":"#6a3a3a","label":{"x":1058,"y":276,"fontSize":5.5,"color":"#c8a0a0"}},"geometry":{"type":"Polygon","coordinates":[[[1034,248],[1066,242],[1084,256],[1086,282],[1072,302],[1040,296],[1030,272],[1034,258],[1034,248]]]}},{"type":"Feature","id":"RUS_magadan","properties":{"name":"马加丹","faction":"RUS","parent":"RUS","level":2,"baseColor":"#5a5a5a","label":{"x":1108,"y":230,"fontSize":5.5,"color":"#c8c8c8"}},"geometry":{"type":"Polygon","coordinates":[[[1084,198],[1116,192],[1134,208],[1136,240],[1120,262],[1086,254],[1076,228],[1084,208],[1084,198]]]}},{"type":"Feature","id":"RUS_chita","properties":{"name":"赤塔","faction":"RUS","parent":"RUS","level":2,"baseColor":"#6a5a3a","label":{"x":1102,"y":260,"fontSize":5.5,"color":"#c8c0a0"}},"geometry":{"type":"Polygon","coordinates":[[[1080,230],[1110,224],[1128,240],[1130,270],[1114,290],[1082,282],[1072,256],[1080,240],[1080,230]]]}},{"type":"Feature","id":"RUS_amur","properties":{"name":"阿穆尔","faction":"RUS","parent":"RUS","level":2,"baseColor":"#4a3a5a","label":{"x":1068,"y":340,"fontSize":5.5,"color":"#b0a0c8"}},"geometry":{"type":"Polygon","coordinates":[[[1034,306],[1074,298],[1102,314],[1108,346],[1092,372],[1044,368],[1030,342],[1034,322],[1034,306]]]}},{"type":"Feature","id":"MID_iberia","properties":{"name":"伊比利亚联盟","faction":"MID","parent":null,"level":2,"baseColor":"#8a7a4a","label":{"x":354,"y":308,"fontSize":7.5,"color":"#fff0c8"}},"geometry":{"type":"Polygon","coordinates":[[[318,275],[370,268],[400,290],[398,332],[370,352],[330,348],[312,320],[318,275]]]}},{"type":"Feature","id":"MID_turkey","properties":{"name":"土耳其共和国","faction":"MID","parent":null,"level":2,"baseColor":"#5a5a4a","label":{"x":692,"y":430,"fontSize":7,"color":"#e8e0b0"}},"geometry":{"type":"Polygon","coordinates":[[[650,400],[715,392],[748,414],[745,448],[710,468],[660,466],[642,435],[650,400]]]}},{"type":"Feature","id":"MID_iran","properties":{"name":"伊朗","faction":"MID","parent":null,"level":2,"baseColor":"#5a6a5a","label":{"x":795,"y":478,"fontSize":7,"color":"#c8d8b8"}},"geometry":{"type":"Polygon","coordinates":[[[745,442],[810,432],[850,460],[848,500],[812,525],[760,518],[740,485],[745,442]]]}},{"type":"Feature","id":"MID_egypt","properties":{"name":"埃及","faction":"MID","parent":null,"level":2,"baseColor":"#6a7a5a","label":{"x":670,"y":530,"fontSize":7,"color":"#d8e8b8"}},"geometry":{"type":"Polygon","coordinates":[[[640,494],[695,490],[720,515],[710,560],[670,575],[630,560],[618,528],[640,494]]]}},{"type":"Feature","id":"MID_britain","properties":{"name":"不列颠 (被占领)","faction":"MID","parent":null,"level":2,"baseColor":"#5a5a6a","label":{"x":380,"y":160,"fontSize":7,"color":"#c0c0d8"}},"geometry":{"type":"Polygon","coordinates":[[[350,130],[395,125],[415,148],[410,184],[385,198],[354,192],[342,162],[350,130]]]}}]}